IRIDIUM 150             
1 43257U 18030J   25114.88587221  .00000083  00000+0  22490-4 0  9998
2 43257  86.3920 105.3551 0002304  96.6287 263.5171 14.34217503370205
IRIDIUM 143             
1 43258U 18030K   25114.93661239  .00000130  00000+0  39394-4 0  9991
2 43258  86.3922 105.4105 0002405 101.1479 258.9987 14.34217856370148
IRIDIUM 161             
1 43478U 18047C   25114.82671338  .00000734  00000+0  21216-3 0  9995
2 43478  86.4455 263.2444 0002130  89.1118 271.0327 14.43273110364796
IRIDIUM 152             
1 43479U 18047D   25114.90932485  .00000604  00000+0  20853-3 0  9990
2 43479  86.3929 263.0701 0002073  92.4037 267.7396 14.34222195362534
IRIDIUM 147             
1 43480U 18047E   25114.49706406  .00000522  00000+0  17918-3 0  9995
2 43480  86.3932 263.2401 0002272  87.6895 272.4560 14.34218606362479
IRIDIUM 110             
1 43481U 18047F   25114.85224708  .00000013  00000+0 -24607-5 0  9997
2 43481  86.3933 263.1732 0001916  80.0096 280.1316 14.34214835362511
IRIDIUM 162             
1 43482U 18047G   25114.82040847  .00000802  00000+0  23255-3 0  9996
2 43482  86.4452 263.1427 0001854  88.3617 271.7796 14.43283917364787
IRIDIUM 160             
1 43569U 18061A   25114.72831510  .00000130  00000+0  39361-4 0  9992
2 43569  86.3993 231.5965 0002185  87.8657 272.2789 14.34218480353390
